     3.04           N: GNSS NAV DATA    C: BDS              RINEX VERSION / TYPE
TPP 5.1.1                               20240329 235934 UTC PGM / RUN BY / DATE 
                                                            COMMENT             
                                                            COMMENT             
                                                            COMMENT             
BDSA    .3353E-07   .7451E-08  -.1788E-06   .0000E+00       IONOSPHERIC CORR    
BDSB    .1372E+06   .0000E+00  -.3277E+06   .2621E+06       IONOSPHERIC CORR    
BDUT  -.1862645149E-08 -.532907052E-14  61440 2308          TIME SYSTEM CORR    
                                                            END OF HEADER       
C20 2024 03 30 21 00 00 -.310069182888E-03 -.385620424481E-10  .000000000000E+00
      .100000000000E+01 -.274687500000E+02  .345657255155E-08 -.354544944951E+00
     -.140769407153E-05  .884677167050E-03  .853231176734E-05  .528262797356E+04
      .594000000000E+06  .288709998131E-07 -.160667094605E+01 -.712461769581E-07
      .977009395974E+00  .198859375000E+03 -.576205351666E+00 -.652670043470E-08
      .276082928534E-09  .000000000000E+00  .951000000000E+03  .000000000000E+00
      .200000000000E+01  .000000000000E+00  .119000000000E-07  .119000000000E-07
      .594000000000E+06  .100000000000E+01  .000000000000E+00  .000000000000E+00
C21 2024 03 30 21 00 00 -.961827230639E-03 -.568434188608E-12  .000000000000E+00
      .100000000000E+01 -.433593750000E+02  .349978863739E-08 -.248128224853E+01
     -.224262475967E-05  .865151640028E-03  .877492129803E-05  .528262742043E+04
      .594000000000E+06 -.162981450558E-07 -.160562028560E+01  .381842255592E-07
      .976290829632E+00  .190812500000E+03 -.761434375907E+00 -.653170064298E-08
      .371086885830E-09  .000000000000E+00  .951000000000E+03  .000000000000E+00
      .200000000000E+01  .000000000000E+00  .112000000000E-07  .112000000000E-07
      .594000000000E+06  .100000000000E+01  .000000000000E+00  .000000000000E+00
C59 2024 03 30 21 00 00  .440166331828E-06  .214050999148E-12  .000000000000E+00
      .100000000000E+01 -.320265625000E+03 -.116865582206E-07 -.270941964751E+01
     -.102855265141E-04  .316304503940E-03 -.127693638206E-04  .649350325394E+04
      .594000000000E+06  .573229044676E-06  .277285645969E+01  .301748514175E-06
      .598233840441E-01  .392250000000E+03  .171280839860E+01  .127773179409E-07
      .296440919383E-10  .000000000000E+00  .951000000000E+03  .000000000000E+00
      .200000000000E+01  .000000000000E+00  .417000000000E-07  .417000000000E-07
      .594000000000E+06  .100000000000E+01  .000000000000E+00  .000000000000E+00
C02 2024 03 30 21 00 00  .559066073038E-03  .346176420862E-10  .000000000000E+00
      .100000000000E+01 -.364906250000E+03 -.883429655534E-08 -.276141844304E+01
     -.118082389235E-04  .111267913599E-02 -.104801729321E-04  .649344126129E+04
      .594000000000E+06  .175554305315E-06  .296318303368E+01 -.144820660353E-06
      .772890430332E-01  .323171875000E+03  .599661578266E+00  .998470161719E-08
      .270368404786E-09  .000000000000E+00  .951000000000E+03  .000000000000E+00
      .200000000000E+01  .000000000000E+00  .119999998827E-08  .379000000000E-07
      .595050000000E+06  .000000000000E+00  .000000000000E+00  .000000000000E+00
C25 2024 03 30 22 00 00  .362608348951E-03  .946531741874E-11  .000000000000E+00
      .100000000000E+01  .329218750000E+02  .397016537332E-08 -.829133499390E+00
      .178301706910E-05  .525255454704E-03  .992510467768E-05  .528262161255E+04
      .597600000000E+06  .158324837685E-07  .462067861381E+00 -.493600964546E-07
      .946892399492E+00  .151984375000E+03  .757493673978E+00 -.670599361727E-08
     -.263225250103E-09  .000000000000E+00  .951000000000E+03  .000000000000E+00
      .200000000000E+01  .000000000000E+00  .800000010681E-09  .800000000000E-09
      .597600000000E+06  .100000000000E+01  .000000000000E+00  .000000000000E+00
C32 2024 03 30 22 00 00 -.592578668147E-03 -.718713977221E-11  .000000000000E+00
      .100000000000E+01 -.372812500000E+02  .351978947050E-08  .137159562298E+01
     -.186543911695E-05  .729736173525E-03  .764429569244E-05  .528262935257E+04
      .597600000000E+06  .358559191227E-07 -.161386397674E+01 -.135041773319E-07
      .975791744889E+00  .210421875000E+03 -.981415342425E+00 -.657170230921E-08
      .273582824394E-09  .000000000000E+00  .951000000000E+03  .000000000000E+00
      .200000000000E+01  .000000000000E+00 -.759999974065E-08  .436000000000E-07
      .597600000000E+06  .100000000000E+01  .000000000000E+00  .000000000000E+00
C42 2024 03 30 22 00 00 -.444732722826E-03  .148059342564E-11  .000000000000E+00
      .200000000000E+01 -.452500000000E+02  .346728728358E-08 -.239321641905E+01
     -.234460458159E-05  .158957624808E-02  .864453613758E-05  .528262652969E+04
      .597600000000E+06 -.102445483208E-07 -.161022045345E+01  .521540641785E-07
      .974673623434E+00  .192656250000E+03 -.112068238451E+01 -.650169939331E-08
      .356086260993E-09  .000000000000E+00  .951000000000E+03  .000000000000E+00
      .200000000000E+01  .000000000000E+00 -.323000008962E-07  .189000000000E-07
      .597600000000E+06  .100000000000E+01  .000000000000E+00  .000000000000E+00
C16 2024 03 30 22 00 00 -.428222818300E-03 -.233164598740E-10  .000000000000E+00
      .100000000000E+01 -.945156250000E+02  .136434254463E-08 -.226205133328E+01
     -.331224873662E-05  .716748880222E-02  .112461857498E-04  .649328546143E+04
      .597600000000E+06 -.130385160446E-07 -.207358880073E+00 -.113621354103E-06
      .962933695608E+00 -.104281250000E+03 -.224563302708E+01 -.172542901390E-08
     -.486805991709E-09  .000000000000E+00  .951000000000E+03  .000000000000E+00
      .200000000000E+01  .000000000000E+00 -.270000000135E-08  .490000000000E-08
      .597600000000E+06  .000000000000E+00  .000000000000E+00  .000000000000E+00
C39 2024 03 30 22 00 00 -.775512307882E-05 -.154543045028E-12  .000000000000E+00
      .100000000000E+01 -.106625000000E+03  .141291599648E-08 -.159850328863E+01
     -.368664041162E-05  .320273393299E-02  .102389603853E-04  .649352884674E+04
      .597600000000E+06  .162981450558E-07 -.278831120904E+00 -.124331563711E-06
      .963433637621E+00 -.720000000000E+02 -.272780373524E+01 -.178221709364E-08
     -.445732852277E-09  .000000000000E+00  .951000000000E+03  .000000000000E+00
      .200000000000E+01  .000000000000E+00  .650000009372E-08  .650000000000E-08
      .597600000000E+06  .100000000000E+01  .000000000000E+00  .000000000000E+00
C41 2024 03 30 22 00 00 -.915338401683E-03 -.742073069659E-11  .000000000000E+00
      .100000000000E+01 -.428125000000E+02  .358050628532E-08  .255522473187E+01
     -.205868855119E-05  .179394404404E-02  .764941796660E-05  .528262398529E+04
      .597600000000E+06  .721774995327E-07 -.161080078866E+01  .204890966415E-07
      .974642714901E+00  .211750000000E+03 -.135244177262E+01 -.655384442250E-08
      .320727645308E-09  .000000000000E+00  .951000000000E+03  .000000000000E+00
      .200000000000E+01  .000000000000E+00 -.236000001763E-07  .276000000000E-07
      .597600000000E+06  .100000000000E+01  .000000000000E+00  .000000000000E+00
C26 2024 03 30 22 00 00 -.270302640274E-03 -.536548583341E-11  .000000000000E+00
      .100000000000E+01  .343593750000E+02  .397302263520E-08  .787621895431E+00
      .166706740856E-05  .857846811414E-03  .955816358328E-05  .528262098694E+04
      .597600000000E+06  .246800482273E-07  .462673837160E+00 -.153668224812E-07
      .946941531596E+00  .160484375000E+03  .707914623943E+00 -.670099340899E-08
     -.298226708054E-09  .000000000000E+00  .951000000000E+03  .000000000000E+00
      .200000000000E+01  .000000000000E+00 -.519999998616E-08  .460000000000E-07
      .597600000000E+06  .100000000000E+01  .000000000000E+00  .000000000000E+00
C29 2024 03 30 22 00 00  .261655543000E-03  .528554977564E-11  .000000000000E+00
      .100000000000E+01  .890625000000E+00  .409588489576E-08 -.203608534507E+00
      .228174030781E-07  .257868552580E-03  .170152634382E-05  .528261826515E+04
      .597600000000E+06  .381842255592E-07  .255002506166E+01 -.158324837685E-07
      .957662733011E+00  .326562500000E+03  .113672227330E+01 -.714851204993E-08
     -.882179603464E-10  .000000000000E+00  .951000000000E+03  .000000000000E+00
      .200000000000E+01  .000000000000E+00 -.599999994133E-09  .506000000000E-07
      .597600000000E+06  .100000000000E+01  .000000000000E+00  .000000000000E+00
C06 2024 03 30 22 00 00  .310447416268E-03  .271640487881E-10  .000000000000E+00
      .100000000000E+01 -.101937500000E+03  .144041714201E-08 -.179116129175E+01
     -.349944457412E-05  .394986884203E-02  .111362896860E-04  .649387598610E+04
      .597600000000E+06 -.717118382454E-07 -.203395614095E+00 -.954605638981E-07
      .947411925590E+00 -.103328125000E+03 -.286076030464E+01 -.179507477207E-08
     -.481091467962E-09  .000000000000E+00  .951000000000E+03  .000000000000E+00
      .200000000000E+01  .000000000000E+00  .849999981511E-08  .499000000000E-07
      .597600000000E+06  .000000000000E+00  .000000000000E+00  .000000000000E+00
C24 2024 03 30 22 00 00  .947581953369E-03 -.585043125056E-11  .000000000000E+00
      .100000000000E+01  .379218750000E+02  .390694845437E-08 -.111248901483E+00
      .188546255231E-05  .667264801450E-03  .998610630631E-05  .528264422035E+04
      .597600000000E+06  .102445483208E-07  .485802630510E+00 -.232830643654E-08
      .945367602904E+00  .151187500000E+03  .837054033380E+00 -.667492089439E-08
     -.285726187357E-09  .000000000000E+00  .951000000000E+03  .000000000000E+00
      .200000000000E+01  .000000000000E+00  .379999987032E-08  .380000000000E-08
      .597600000000E+06  .100000000000E+01  .000000000000E+00  .000000000000E+00
